#   ------------------ Verification test cases ----------------------
#                       # TEME example
1 25789U 99034A   12003.59523028  .00000081  00000-0  51300-4 0  1912
2 25789 098.6209 195.0584 0001261 079.8423 280.2898 14.26882686653138
